[
    {
        "OBJECT_NAME": "SL-3 R/B",
        "OBJECT_ID": "1983-010B",
        "EPOCH": "2026-06-13T19:54:38.493216",
        "MEAN_MOTION": 15.49162001,
        "ECCENTRICITY": 0.0015701,
        "INCLINATION": 81.1025,
        "RA_OF_ASC_NODE": 244.099,
        "ARG_OF_PERICENTER": 73.6339,
        "MEAN_ANOMALY": 286.6632,
        "EPHEMERIS_TYPE": 0,
        "CLASSIFICATION_TYPE": "U",
        "NORAD_CAT_ID": 13819,
        "ELEMENT_SET_NO": 999,
        "REV_AT_EPOCH": 37281,
        "BSTAR": 0.00027634,
        "MEAN_MOTION_DOT": 0.0001515,
        "MEAN_MOTION_DDOT": 0
    },
    {
        "OBJECT_NAME": "SL-3 R/B",
        "OBJECT_ID": "1983-075B",
        "EPOCH": "2026-06-13T19:42:24.869088",
        "MEAN_MOTION": 15.40437483,
        "ECCENTRICITY": 0.0019053,
        "INCLINATION": 97.6097,
        "RA_OF_ASC_NODE": 173.1879,
        "ARG_OF_PERICENTER": 242.0982,
        "MEAN_ANOMALY": 117.8334,
        "EPHEMERIS_TYPE": 0,
        "CLASSIFICATION_TYPE": "U",
        "NORAD_CAT_ID": 14208,
        "ELEMENT_SET_NO": 999,
        "REV_AT_EPOCH": 34494,
        "BSTAR": 0.00025102,
        "MEAN_MOTION_DOT": 0.00010135,
        "MEAN_MOTION_DDOT": 0
    },
    {
        "OBJECT_NAME": "COSMOS 1536",
        "OBJECT_ID": "1984-013A",
        "EPOCH": "2026-06-13T14:51:38.992320",
        "MEAN_MOTION": 15.25018046,
        "ECCENTRICITY": 0.0012875,
        "INCLINATION": 82.5443,
        "RA_OF_ASC_NODE": 12.3994,
        "ARG_OF_PERICENTER": 309.4671,
        "MEAN_ANOMALY": 50.5426,
        "EPHEMERIS_TYPE": 0,
        "CLASSIFICATION_TYPE": "U",
        "NORAD_CAT_ID": 14699,
        "ELEMENT_SET_NO": 999,
        "REV_AT_EPOCH": 28723,
        "BSTAR": 0.00021713,
        "MEAN_MOTION_DOT": 5.464e-05,
        "MEAN_MOTION_DDOT": 0
    },
    {
        "OBJECT_NAME": "SL-14 R/B",
        "OBJECT_ID": "1984-027B",
        "EPOCH": "2026-06-13T17:07:35.205024",
        "MEAN_MOTION": 14.86057421,
        "ECCENTRICITY": 0.0018471,
        "INCLINATION": 82.541,
        "RA_OF_ASC_NODE": 154.9746,
        "ARG_OF_PERICENTER": 20.4355,
        "MEAN_ANOMALY": 339.7596,
        "EPHEMERIS_TYPE": 0,
        "CLASSIFICATION_TYPE": "U",
        "NORAD_CAT_ID": 14820,
        "ELEMENT_SET_NO": 999,
        "REV_AT_EPOCH": 26189,
        "BSTAR": 4.6359e-05,
        "MEAN_MOTION_DOT": 4.31e-06,
        "MEAN_MOTION_DDOT": 0
    },
    {
        "OBJECT_NAME": "SL-8 R/B",
        "OBJECT_ID": "1985-006B",
        "EPOCH": "2026-06-13T21:15:09.842976",
        "MEAN_MOTION": 14.37833825,
        "ECCENTRICITY": 0.0018776,
        "INCLINATION": 74.0459,
        "RA_OF_ASC_NODE": 84.1397,
        "ARG_OF_PERICENTER": 331.7864,
        "MEAN_ANOMALY": 93.9063,
        "EPHEMERIS_TYPE": 0,
        "CLASSIFICATION_TYPE": "U",
        "NORAD_CAT_ID": 15483,
        "ELEMENT_SET_NO": 999,
        "REV_AT_EPOCH": 16785,
        "BSTAR": 7.5406e-05,
        "MEAN_MOTION_DOT": 2.01e-06,
        "MEAN_MOTION_DDOT": 0
    },
    {
        "OBJECT_NAME": "SL-12 R/B(2)",
        "OBJECT_ID": "1985-042D",
        "EPOCH": "2026-06-13T15:41:29.692896",
        "MEAN_MOTION": 14.22005249,
        "ECCENTRICITY": 0.0036135,
        "INCLINATION": 71.108,
        "RA_OF_ASC_NODE": 244.9813,
        "ARG_OF_PERICENTER": 333.1239,
        "MEAN_ANOMALY": 133.4416,
        "EPHEMERIS_TYPE": 0,
        "CLASSIFICATION_TYPE": "U",
        "NORAD_CAT_ID": 15772,
        "ELEMENT_SET_NO": 999,
        "REV_AT_EPOCH": 12803,
        "BSTAR": 4.4317e-05,
        "MEAN_MOTION_DOT": 5.1e-07,
        "MEAN_MOTION_DDOT": 0
    },
    {
        "OBJECT_NAME": "SL-14 R/B",
        "OBJECT_ID": "1985-069B",
        "EPOCH": "2026-06-13T20:54:01.146240",
        "MEAN_MOTION": 14.86513255,
        "ECCENTRICITY": 0.0017567,
        "INCLINATION": 82.5268,
        "RA_OF_ASC_NODE": 294.4849,
        "ARG_OF_PERICENTER": 230.8271,
        "MEAN_ANOMALY": 129.1386,
        "EPHEMERIS_TYPE": 0,
        "CLASSIFICATION_TYPE": "U",
        "NORAD_CAT_ID": 15945,
        "ELEMENT_SET_NO": 999,
        "REV_AT_EPOCH": 18712,
        "BSTAR": 4.2792e-05,
        "MEAN_MOTION_DOT": 4.04e-06,
        "MEAN_MOTION_DDOT": 0
    },
    {
        "OBJECT_NAME": "SL-16 R/B",
        "OBJECT_ID": "1985-097B",
        "EPOCH": "2026-06-13T19:36:28.082016",
        "MEAN_MOTION": 14.166109,
        "ECCENTRICITY": 0.0005445,
        "INCLINATION": 71.0035,
        "RA_OF_ASC_NODE": 298.1734,
        "ARG_OF_PERICENTER": 118.3795,
        "MEAN_ANOMALY": 350.6477,
        "EPHEMERIS_TYPE": 0,
        "CLASSIFICATION_TYPE": "U",
        "NORAD_CAT_ID": 16182,
        "ELEMENT_SET_NO": 999,
        "REV_AT_EPOCH": 10084,
        "BSTAR": -9.8914e-05,
        "MEAN_MOTION_DOT": -2.45e-06,
        "MEAN_MOTION_DDOT": 0
    },
    {
        "OBJECT_NAME": "SL-14 R/B",
        "OBJECT_ID": "1986-006B",
        "EPOCH": "2026-06-13T18:06:00.638784",
        "MEAN_MOTION": 14.86942577,
        "ECCENTRICITY": 0.007517,
        "INCLINATION": 82.5262,
        "RA_OF_ASC_NODE": 169.344,
        "ARG_OF_PERICENTER": 315.061,
        "MEAN_ANOMALY": 44.4536,
        "EPHEMERIS_TYPE": 0,
        "CLASSIFICATION_TYPE": "U",
        "NORAD_CAT_ID": 16496,
        "ELEMENT_SET_NO": 999,
        "REV_AT_EPOCH": 16348,
        "BSTAR": 5.6952e-05,
        "MEAN_MOTION_DOT": 5.61e-06,
        "MEAN_MOTION_DDOT": 0
    },
    {
        "OBJECT_NAME": "COSMOS 1743",
        "OBJECT_ID": "1986-034A",
        "EPOCH": "2026-06-13T12:09:06.961248",
        "MEAN_MOTION": 15.666314,
        "ECCENTRICITY": 0.00037679,
        "INCLINATION": 82.5268,
        "RA_OF_ASC_NODE": 332.6452,
        "ARG_OF_PERICENTER": 288.507,
        "MEAN_ANOMALY": 71.578,
        "EPHEMERIS_TYPE": 0,
        "CLASSIFICATION_TYPE": "U",
        "NORAD_CAT_ID": 16719,
        "ELEMENT_SET_NO": 999,
        "REV_AT_EPOCH": 19521,
        "BSTAR": 0.00043582448,
        "MEAN_MOTION_DOT": 0.00045802,
        "MEAN_MOTION_DDOT": 0
    },
    {
        "OBJECT_NAME": "SL-14 R/B",
        "OBJECT_ID": "1986-046B",
        "EPOCH": "2026-06-13T18:50:51.594432",
        "MEAN_MOTION": 14.85669004,
        "ECCENTRICITY": 0.0021568,
        "INCLINATION": 82.4816,
        "RA_OF_ASC_NODE": 349.3903,
        "ARG_OF_PERICENTER": 270.5172,
        "MEAN_ANOMALY": 89.3573,
        "EPHEMERIS_TYPE": 0,
        "CLASSIFICATION_TYPE": "U",
        "NORAD_CAT_ID": 16792,
        "ELEMENT_SET_NO": 999,
        "REV_AT_EPOCH": 14067,
        "BSTAR": 4.0949e-05,
        "MEAN_MOTION_DOT": 3.8e-06,
        "MEAN_MOTION_DDOT": 0
    },
    {
        "OBJECT_NAME": "SL-14 R/B",
        "OBJECT_ID": "1986-055B",
        "EPOCH": "2026-06-13T17:02:37.008384",
        "MEAN_MOTION": 14.85721024,
        "ECCENTRICITY": 0.0019379,
        "INCLINATION": 82.5205,
        "RA_OF_ASC_NODE": 36.4021,
        "ARG_OF_PERICENTER": 19.0002,
        "MEAN_ANOMALY": 41.0362,
        "EPHEMERIS_TYPE": 0,
        "CLASSIFICATION_TYPE": "U",
        "NORAD_CAT_ID": 16882,
        "ELEMENT_SET_NO": 999,
        "REV_AT_EPOCH": 13362,
        "BSTAR": 4.029e-05,
        "MEAN_MOTION_DOT": 3.75e-06,
        "MEAN_MOTION_DDOT": 0
    },
    {
        "OBJECT_NAME": "AJISAI (EGS)",
        "OBJECT_ID": "1986-061A",
        "EPOCH": "2026-06-13T20:13:05.310048",
        "MEAN_MOTION": 12.4451681,
        "ECCENTRICITY": 0.001123,
        "INCLINATION": 50.0064,
        "RA_OF_ASC_NODE": 157.6802,
        "ARG_OF_PERICENTER": 172.1295,
        "MEAN_ANOMALY": 255.222,
        "EPHEMERIS_TYPE": 0,
        "CLASSIFICATION_TYPE": "U",
        "NORAD_CAT_ID": 16908,
        "ELEMENT_SET_NO": 999,
        "REV_AT_EPOCH": 47997,
        "BSTAR": -8.3658e-07,
        "MEAN_MOTION_DOT": -9.8e-07,
        "MEAN_MOTION_DDOT": 0
    }
]