SL-3 R/B                
1 13819U 83010B   26164.82961219  .00015150  00000+0  27634-3 0  9997
2 13819  81.1025 244.0990 0015701  73.6339 286.6632 15.49162001372817
SL-3 R/B                
1 14208U 83075B   26164.82112117  .00010135  00000+0  25102-3 0  9992
2 14208  97.6097 173.1879 0019053 242.0982 117.8334 15.40437483344946
COSMOS 1536             
1 14699U 84013A   26164.61920130  .00005464  00000+0  21713-3 0  9991
2 14699  82.5443  12.3994 0012875 309.4671  50.5426 15.25018046287234
SL-14 R/B               
1 14820U 84027B   26164.71360191  .00000431  00000+0  46359-4 0  9991
2 14820  82.5410 154.9746 0018471  20.4355 339.7596 14.86057421261899
SL-8 R/B                
1 15483U 85006B   26164.88553059  .00000201  00000+0  75406-4 0  9990
2 15483  74.0459  84.1397 0018776 331.7864  93.9063 14.37833825167856
SL-12 R/B(2)            
1 15772U 85042D   26164.65381589  .00000051  00000+0  44317-4 0  9993
2 15772  71.1080 244.9813 0036135 333.1239 133.4416 14.22005249128039
SL-14 R/B               
1 15945U 85069B   26164.87084660  .00000404  00000+0  42792-4 0  9995
2 15945  82.5268 294.4849 0017567 230.8271 129.1386 14.86513255187125
SL-16 R/B               
1 16182U 85097B   26164.81699169 -.00000245  00000+0 -98914-4 0  9992
2 16182  71.0035 298.1734 0005445 118.3795 350.6477 14.16610900100845
SL-14 R/B               
1 16496U 86006B   26164.75417406  .00000561  00000+0  56952-4 0  9991
2 16496  82.5262 169.3440 0075170 315.0610  44.4536 14.86942577163487
COSMOS 1743             
1 16719U 86034A   26164.50633057  .00045802  00000+0  43582-3 0  9996
2 16719  82.5268 332.6452 0003767 288.5070  71.5780 15.66631400195213
SL-14 R/B               
1 16792U 86046B   26164.78531938  .00000380  00000+0  40949-4 0  9992
2 16792  82.4816 349.3903 0021568 270.5172  89.3573 14.85669004140679
SL-14 R/B               
1 16882U 86055B   26164.71015056  .00000375  00000+0  40290-4 0  9996
2 16882  82.5205  36.4021 0019379  19.0002  41.0362 14.85721024133621
AJISAI (EGS)            
1 16908U 86061A   26164.84242257 -.00000098  00000+0 -83658-6 0  9992
2 16908  50.0064 157.6802 0011230 172.1295 255.2220 12.44516810479970
